STARLINK-35726          
1 66280U 25247R   25331.16670139  .00017834  00000+0  45505-3 0  9993
2 66280  53.1588 310.7642 0001453  84.8325 254.2907 15.39602957  5113
STARLINK-35727          
1 66281U 25247S   25331.16670139  .00028272  00000+0  71469-3 0  9990
2 66281  53.1592 310.6655 0001954  88.1468 300.5418 15.39596650  5117
STARLINK-35776          
1 66282U 25247T   25331.16670139  .00029653  00000+0  74885-3 0  9990
2 66282  53.1595 310.6611 0001844  89.2661 301.2944 15.39601730  5116
STARLINK-35774          
1 66283U 25247U   25331.16670139 -.00614479  00000+0 -16419-1 0  9996
2 66283  53.1599 310.6136 0001480 106.3767 307.9780 15.40001881  5111
STARLINK-35830          
1 66284U 25247V   25331.16670139 -.00595778  00000+0 -15886-1 0  9994
2 66284  53.1599 310.6088 0001336 105.0572 311.1605 15.39992128  5112
STARLINK-35819          
1 66285U 25247W   25331.16670139 -.02056979  00000+0 -51231-1 0  9996
2 66285  53.1599 310.5717 0001074  99.8420 335.1129 15.43285063  5061
STARLINK-35783          
1 66286U 25247X   25331.15292741 -.00443101  00000+0 -10192-1 0  9991
2 66286  53.1597 310.6326 0001035  80.7867 279.3256 15.43800204  5293
STARLINK-34884          
1 66287U 25247Y   25331.08564698  .00077540  00000+0  14128-2 0  9999
2 66287  53.1593 310.9235 0006733 291.9475  68.0818 15.48792255  5280
STARLINK-34896          
1 66288U 25247Z   25331.16670139 -.02070600  00000+0 -46826-1 0  9990
2 66288  53.1595 310.5390 0001196  83.6369   7.4975 15.46114334  5383
STARLINK-35802          
1 66289U 25247AA  25331.14932887  .00011786  00000+0  22022-3 0  9990
2 66289  53.1595 310.6092 0000645  83.8504 276.2578 15.49233422  5293
STARLINK-35799          
1 66290U 25247AB  25330.37486873  .00083946  00000+0  14982-2 0  9997
2 66290  53.1602 314.3078 0000280  34.4635 325.6392 15.49367369  5225
STARLINK-35800          
1 66291U 25247AC  25331.14828233  .00051071  00000+0  91897-3 0  9999
2 66291  53.1592 310.6013 0001387  98.1311 261.9855 15.49350530  5340
