CCSDS_OMM_VERS = 2.0
CREATION_DATE  = 
ORIGINATOR     = 

OBJECT_NAME    = STARLINK-35726
OBJECT_ID      = 2025-247R
CENTER_NAME    = EARTH
REF_FRAME      = TEME
TIME_SYSTEM    = UTC
MEAN_ELEMENT_THEORY = SGP/SGP4

EPOCH          = 2025-11-27T04:00:03.000096
MEAN_MOTION    = 15.39602957
ECCENTRICITY   = .0001453
INCLINATION    = 53.1588
RA_OF_ASC_NODE = 310.7642
ARG_OF_PERICENTER = 84.8325
MEAN_ANOMALY   = 254.2907

EPHEMERIS_TYPE = 0
CLASSIFICATION_TYPE = U
NORAD_CAT_ID   = 66280
ELEMENT_SET_NO = 999
REV_AT_EPOCH   = 511
BSTAR          = .45505E-3
MEAN_MOTION_DOT = .17834E-3
MEAN_MOTION_DDOT = 0

CCSDS_OMM_VERS = 2.0
CREATION_DATE  = 
ORIGINATOR     = 

OBJECT_NAME    = STARLINK-35727
OBJECT_ID      = 2025-247S
CENTER_NAME    = EARTH
REF_FRAME      = TEME
TIME_SYSTEM    = UTC
MEAN_ELEMENT_THEORY = SGP/SGP4

EPOCH          = 2025-11-27T04:00:03.000096
MEAN_MOTION    = 15.39596650
ECCENTRICITY   = .0001954
INCLINATION    = 53.1592
RA_OF_ASC_NODE = 310.6655
ARG_OF_PERICENTER = 88.1468
MEAN_ANOMALY   = 300.5418

EPHEMERIS_TYPE = 0
CLASSIFICATION_TYPE = U
NORAD_CAT_ID   = 66281
ELEMENT_SET_NO = 999
REV_AT_EPOCH   = 511
BSTAR          = .71469E-3
MEAN_MOTION_DOT = .28272E-3
MEAN_MOTION_DDOT = 0

CCSDS_OMM_VERS = 2.0
CREATION_DATE  = 
ORIGINATOR     = 

OBJECT_NAME    = STARLINK-35776
OBJECT_ID      = 2025-247T
CENTER_NAME    = EARTH
REF_FRAME      = TEME
TIME_SYSTEM    = UTC
MEAN_ELEMENT_THEORY = SGP/SGP4

EPOCH          = 2025-11-27T04:00:03.000096
MEAN_MOTION    = 15.39601730
ECCENTRICITY   = .0001844
INCLINATION    = 53.1595
RA_OF_ASC_NODE = 310.6611
ARG_OF_PERICENTER = 89.2661
MEAN_ANOMALY   = 301.2944

EPHEMERIS_TYPE = 0
CLASSIFICATION_TYPE = U
NORAD_CAT_ID   = 66282
ELEMENT_SET_NO = 999
REV_AT_EPOCH   = 511
BSTAR          = .74885E-3
MEAN_MOTION_DOT = .29653E-3
MEAN_MOTION_DDOT = 0

CCSDS_OMM_VERS = 2.0
CREATION_DATE  = 
ORIGINATOR     = 

OBJECT_NAME    = STARLINK-35774
OBJECT_ID      = 2025-247U
CENTER_NAME    = EARTH
REF_FRAME      = TEME
TIME_SYSTEM    = UTC
MEAN_ELEMENT_THEORY = SGP/SGP4

EPOCH          = 2025-11-27T04:00:03.000096
MEAN_MOTION    = 15.40001881
ECCENTRICITY   = .000148
INCLINATION    = 53.1599
RA_OF_ASC_NODE = 310.6136
ARG_OF_PERICENTER = 106.3767
MEAN_ANOMALY   = 307.9780

EPHEMERIS_TYPE = 0
CLASSIFICATION_TYPE = U
NORAD_CAT_ID   = 66283
ELEMENT_SET_NO = 999
REV_AT_EPOCH   = 511
BSTAR          = -.16419E-1
MEAN_MOTION_DOT = -.614479E-2
MEAN_MOTION_DDOT = 0

CCSDS_OMM_VERS = 2.0
CREATION_DATE  = 
ORIGINATOR     = 

OBJECT_NAME    = STARLINK-35830
OBJECT_ID      = 2025-247V
CENTER_NAME    = EARTH
REF_FRAME      = TEME
TIME_SYSTEM    = UTC
MEAN_ELEMENT_THEORY = SGP/SGP4

EPOCH          = 2025-11-27T04:00:03.000096
MEAN_MOTION    = 15.39992128
ECCENTRICITY   = .0001336
INCLINATION    = 53.1599
RA_OF_ASC_NODE = 310.6088
ARG_OF_PERICENTER = 105.0572
MEAN_ANOMALY   = 311.1605

EPHEMERIS_TYPE = 0
CLASSIFICATION_TYPE = U
NORAD_CAT_ID   = 66284
ELEMENT_SET_NO = 999
REV_AT_EPOCH   = 511
BSTAR          = -.15886E-1
MEAN_MOTION_DOT = -.595778E-2
MEAN_MOTION_DDOT = 0

CCSDS_OMM_VERS = 2.0
CREATION_DATE  = 
ORIGINATOR     = 

OBJECT_NAME    = STARLINK-35819
OBJECT_ID      = 2025-247W
CENTER_NAME    = EARTH
REF_FRAME      = TEME
TIME_SYSTEM    = UTC
MEAN_ELEMENT_THEORY = SGP/SGP4

EPOCH          = 2025-11-27T04:00:03.000096
MEAN_MOTION    = 15.43285063
ECCENTRICITY   = .0001074
INCLINATION    = 53.1599
RA_OF_ASC_NODE = 310.5717
ARG_OF_PERICENTER = 99.8420
MEAN_ANOMALY   = 335.1129

EPHEMERIS_TYPE = 0
CLASSIFICATION_TYPE = U
NORAD_CAT_ID   = 66285
ELEMENT_SET_NO = 999
REV_AT_EPOCH   = 506
BSTAR          = -.51231E-1
MEAN_MOTION_DOT = -.2056979E-1
MEAN_MOTION_DDOT = 0

CCSDS_OMM_VERS = 2.0
CREATION_DATE  = 
ORIGINATOR     = 

OBJECT_NAME    = STARLINK-35783
OBJECT_ID      = 2025-247X
CENTER_NAME    = EARTH
REF_FRAME      = TEME
TIME_SYSTEM    = UTC
MEAN_ELEMENT_THEORY = SGP/SGP4

EPOCH          = 2025-11-27T03:40:12.928224
MEAN_MOTION    = 15.43800204
ECCENTRICITY   = .0001035
INCLINATION    = 53.1597
RA_OF_ASC_NODE = 310.6326
ARG_OF_PERICENTER = 80.7867
MEAN_ANOMALY   = 279.3256

EPHEMERIS_TYPE = 0
CLASSIFICATION_TYPE = U
NORAD_CAT_ID   = 66286
ELEMENT_SET_NO = 999
REV_AT_EPOCH   = 529
BSTAR          = -.10192E-1
MEAN_MOTION_DOT = -.443101E-2
MEAN_MOTION_DDOT = 0

CCSDS_OMM_VERS = 2.0
CREATION_DATE  = 
ORIGINATOR     = 

OBJECT_NAME    = STARLINK-34884
OBJECT_ID      = 2025-247Y
CENTER_NAME    = EARTH
REF_FRAME      = TEME
TIME_SYSTEM    = UTC
MEAN_ELEMENT_THEORY = SGP/SGP4

EPOCH          = 2025-11-27T02:03:19.899072
MEAN_MOTION    = 15.48792255
ECCENTRICITY   = .0006733
INCLINATION    = 53.1593
RA_OF_ASC_NODE = 310.9235
ARG_OF_PERICENTER = 291.9475
MEAN_ANOMALY   = 68.0818

EPHEMERIS_TYPE = 0
CLASSIFICATION_TYPE = U
NORAD_CAT_ID   = 66287
ELEMENT_SET_NO = 999
REV_AT_EPOCH   = 528
BSTAR          = .14128E-2
MEAN_MOTION_DOT = .7754E-3
MEAN_MOTION_DDOT = 0

CCSDS_OMM_VERS = 2.0
CREATION_DATE  = 
ORIGINATOR     = 

OBJECT_NAME    = STARLINK-34896
OBJECT_ID      = 2025-247Z
CENTER_NAME    = EARTH
REF_FRAME      = TEME
TIME_SYSTEM    = UTC
MEAN_ELEMENT_THEORY = SGP/SGP4

EPOCH          = 2025-11-27T04:00:03.000096
MEAN_MOTION    = 15.46114334
ECCENTRICITY   = .0001196
INCLINATION    = 53.1595
RA_OF_ASC_NODE = 310.5390
ARG_OF_PERICENTER = 83.6369
MEAN_ANOMALY   = 7.4975

EPHEMERIS_TYPE = 0
CLASSIFICATION_TYPE = U
NORAD_CAT_ID   = 66288
ELEMENT_SET_NO = 999
REV_AT_EPOCH   = 538
BSTAR          = -.46826E-1
MEAN_MOTION_DOT = -.20706E-1
MEAN_MOTION_DDOT = 0

CCSDS_OMM_VERS = 2.0
CREATION_DATE  = 
ORIGINATOR     = 

OBJECT_NAME    = STARLINK-35802
OBJECT_ID      = 2025-247AA
CENTER_NAME    = EARTH
REF_FRAME      = TEME
TIME_SYSTEM    = UTC
MEAN_ELEMENT_THEORY = SGP/SGP4

EPOCH          = 2025-11-27T03:35:02.014368
MEAN_MOTION    = 15.49233422
ECCENTRICITY   = .0000645
INCLINATION    = 53.1595
RA_OF_ASC_NODE = 310.6092
ARG_OF_PERICENTER = 83.8504
MEAN_ANOMALY   = 276.2578

EPHEMERIS_TYPE = 0
CLASSIFICATION_TYPE = U
NORAD_CAT_ID   = 66289
ELEMENT_SET_NO = 999
REV_AT_EPOCH   = 529
BSTAR          = .22022E-3
MEAN_MOTION_DOT = .11786E-3
MEAN_MOTION_DDOT = 0

CCSDS_OMM_VERS = 2.0
CREATION_DATE  = 
ORIGINATOR     = 

OBJECT_NAME    = STARLINK-35799
OBJECT_ID      = 2025-247AB
CENTER_NAME    = EARTH
REF_FRAME      = TEME
TIME_SYSTEM    = UTC
MEAN_ELEMENT_THEORY = SGP/SGP4

EPOCH          = 2025-11-26T08:59:48.658272
MEAN_MOTION    = 15.49367369
ECCENTRICITY   = .00002806
INCLINATION    = 53.1602
RA_OF_ASC_NODE = 314.3078
ARG_OF_PERICENTER = 34.4635
MEAN_ANOMALY   = 325.6392

EPHEMERIS_TYPE = 0
CLASSIFICATION_TYPE = U
NORAD_CAT_ID   = 66290
ELEMENT_SET_NO = 999
REV_AT_EPOCH   = 522
BSTAR          = .14981515E-2
MEAN_MOTION_DOT = .83946E-3
MEAN_MOTION_DDOT = 0

CCSDS_OMM_VERS = 2.0
CREATION_DATE  = 
ORIGINATOR     = 

OBJECT_NAME    = STARLINK-35800
OBJECT_ID      = 2025-247AC
CENTER_NAME    = EARTH
REF_FRAME      = TEME
TIME_SYSTEM    = UTC
MEAN_ELEMENT_THEORY = SGP/SGP4

EPOCH          = 2025-11-27T03:33:31.593312
MEAN_MOTION    = 15.49350530
ECCENTRICITY   = .0001387
INCLINATION    = 53.1592
RA_OF_ASC_NODE = 310.6013
ARG_OF_PERICENTER = 98.1311
MEAN_ANOMALY   = 261.9855

EPHEMERIS_TYPE = 0
CLASSIFICATION_TYPE = U
NORAD_CAT_ID   = 66291
ELEMENT_SET_NO = 999
REV_AT_EPOCH   = 534
BSTAR          = .91897E-3
MEAN_MOTION_DOT = .51071E-3
MEAN_MOTION_DDOT = 0

